STARLINK-1269           
1 45197U 20012V   26068.35569548 -.00001711  00000+0 -45704-4 0  9993
2 45197  53.1625  41.1374 0001486 101.6741 258.4426 15.30171241334869
SCS-01 D                
1 63985U 25100D   26068.75607686  .00032471  00000+0  10528-2 0  9990
2 63985  97.3730 145.4097 0006346 266.2302  93.8214 15.31902149 45621
